[{"OBJECT_NAME":"TEVEL2-1","OBJECT_ID":"2025-052H","EPOCH":"2026-03-06T20:03:54.941184","MEAN_MOTION":15.3019897,"ECCENTRICITY":0.0004664,"INCLINATION":97.3997,"RA_OF_ASC_NODE":321.9669,"ARG_OF_PERICENTER":111.0995,"MEAN_ANOMALY":249.0745,"EPHEMERIS_TYPE":0,"CLASSIFICATION_TYPE":"U","NORAD_CAT_ID":63217,"ELEMENT_SET_NO":999,"REV_AT_EPOCH":5442,"BSTAR":0.00086946,"MEAN_MOTION_DOT":0.00025393,"MEAN_MOTION_DDOT":0},{"OBJECT_NAME":"TEVEL2-3","OBJECT_ID":"2025-052J","EPOCH":"2026-03-06T05:53:02.300064","MEAN_MOTION":15.30206494,"ECCENTRICITY":0.00045821,"INCLINATION":97.4004,"RA_OF_ASC_NODE":321.3898,"ARG_OF_PERICENTER":112.8346,"MEAN_ANOMALY":247.3379,"EPHEMERIS_TYPE":0,"CLASSIFICATION_TYPE":"U","NORAD_CAT_ID":63218,"ELEMENT_SET_NO":999,"REV_AT_EPOCH":5433,"BSTAR":0.0007347758,"MEAN_MOTION_DOT":0.00021441,"MEAN_MOTION_DDOT":0},{"OBJECT_NAME":"TEVEL2-2","OBJECT_ID":"2025-052K","EPOCH":"2026-03-06T10:39:52.273728","MEAN_MOTION":15.30181583,"ECCENTRICITY":0.00045686,"INCLINATION":97.3999,"RA_OF_ASC_NODE":321.5778,"ARG_OF_PERICENTER":112.1727,"MEAN_ANOMALY":247.9999,"EPHEMERIS_TYPE":0,"CLASSIFICATION_TYPE":"U","NORAD_CAT_ID":63219,"ELEMENT_SET_NO":999,"REV_AT_EPOCH":5436,"BSTAR":0.00077190163,"MEAN_MOTION_DOT":0.00022514,"MEAN_MOTION_DDOT":0},{"OBJECT_NAME":"TEVEL2-9","OBJECT_ID":"2025-052AD","EPOCH":"2026-03-06T11:52:13.141056","MEAN_MOTION":15.28481758,"ECCENTRICITY":0.00078579,"INCLINATION":97.4059,"RA_OF_ASC_NODE":321.2033,"ARG_OF_PERICENTER":133.8146,"MEAN_ANOMALY":226.3745,"EPHEMERIS_TYPE":0,"CLASSIFICATION_TYPE":"U","NORAD_CAT_ID":63237,"ELEMENT_SET_NO":999,"REV_AT_EPOCH":5432,"BSTAR":0.00074940936,"MEAN_MOTION_DOT":0.00020752,"MEAN_MOTION_DDOT":0},{"OBJECT_NAME":"TEVEL2-7","OBJECT_ID":"2025-052AE","EPOCH":"2026-03-06T15:35:08.566080","MEAN_MOTION":15.28275981,"ECCENTRICITY":0.00078206,"INCLINATION":97.4057,"RA_OF_ASC_NODE":321.3106,"ARG_OF_PERICENTER":132.7024,"MEAN_ANOMALY":227.4876,"EPHEMERIS_TYPE":0,"CLASSIFICATION_TYPE":"U","NORAD_CAT_ID":63238,"ELEMENT_SET_NO":999,"REV_AT_EPOCH":5434,"BSTAR":0.00084952179,"MEAN_MOTION_DOT":0.00023395,"MEAN_MOTION_DDOT":0},{"OBJECT_NAME":"TEVEL2-8","OBJECT_ID":"2025-052AF","EPOCH":"2026-03-06T15:45:11.492064","MEAN_MOTION":15.28252757,"ECCENTRICITY":0.0007774,"INCLINATION":97.406,"RA_OF_ASC_NODE":321.2981,"ARG_OF_PERICENTER":134.0675,"MEAN_ANOMALY":226.1206,"EPHEMERIS_TYPE":0,"CLASSIFICATION_TYPE":"U","NORAD_CAT_ID":63239,"ELEMENT_SET_NO":999,"REV_AT_EPOCH":5434,"BSTAR":0.00085477,"MEAN_MOTION_DOT":0.00023523,"MEAN_MOTION_DDOT":0},{"OBJECT_NAME":"HADES-ICM","OBJECT_ID":"2025-052BN","EPOCH":"2026-03-06T14:40:39.923616","MEAN_MOTION":15.55831658,"ECCENTRICITY":0.00087935,"INCLINATION":97.395,"RA_OF_ASC_NODE":325.9491,"ARG_OF_PERICENTER":116.9998,"MEAN_ANOMALY":243.2156,"EPHEMERIS_TYPE":0,"CLASSIFICATION_TYPE":"U","NORAD_CAT_ID":63492,"ELEMENT_SET_NO":999,"REV_AT_EPOCH":5466,"BSTAR":0.0023163562,"MEAN_MOTION_DOT":0.00163262,"MEAN_MOTION_DDOT":0},{"OBJECT_NAME":"INNOSAT 16 (RS92S7)","OBJECT_ID":"2025-155C","EPOCH":"2026-03-06T19:52:12.799488","MEAN_MOTION":15.24125573,"ECCENTRICITY":0.0010631,"INCLINATION":97.4465,"RA_OF_ASC_NODE":33.4454,"ARG_OF_PERICENTER":175.1344,"MEAN_ANOMALY":184.9999,"EPHEMERIS_TYPE":0,"CLASSIFICATION_TYPE":"U","NORAD_CAT_ID":64878,"ELEMENT_SET_NO":999,"REV_AT_EPOCH":6507,"BSTAR":0.00039138,"MEAN_MOTION_DOT":9.462e-5,"MEAN_MOTION_DDOT":0},{"OBJECT_NAME":"GEOSCAN 6 (RS92S6)","OBJECT_ID":"2025-155D","EPOCH":"2026-03-06T20:00:17.681472","MEAN_MOTION":15.27885151,"ECCENTRICITY":0.0008374,"INCLINATION":97.4465,"RA_OF_ASC_NODE":34.2182,"ARG_OF_PERICENTER":163.5367,"MEAN_ANOMALY":196.6145,"EPHEMERIS_TYPE":0,"CLASSIFICATION_TYPE":"U","NORAD_CAT_ID":64879,"ELEMENT_SET_NO":999,"REV_AT_EPOCH":6512,"BSTAR":0.00059991,"MEAN_MOTION_DOT":0.0001629,"MEAN_MOTION_DDOT":0},{"OBJECT_NAME":"GEOSCAN 1 (RS92S1)","OBJECT_ID":"2025-155E","EPOCH":"2026-03-06T19:18:40.849344","MEAN_MOTION":15.28298893,"ECCENTRICITY":0.0008254,"INCLINATION":97.4462,"RA_OF_ASC_NODE":34.2614,"ARG_OF_PERICENTER":163.6225,"MEAN_ANOMALY":196.5282,"EPHEMERIS_TYPE":0,"CLASSIFICATION_TYPE":"U","NORAD_CAT_ID":64880,"ELEMENT_SET_NO":999,"REV_AT_EPOCH":6512,"BSTAR":0.00061663,"MEAN_MOTION_DOT":0.00016959,"MEAN_MOTION_DDOT":0},{"OBJECT_NAME":"239ALFEROV (RS61S)","OBJECT_ID":"2025-155F","EPOCH":"2026-03-06T19:59:47.011200","MEAN_MOTION":15.29794948,"ECCENTRICITY":0.0008002,"INCLINATION":97.4468,"RA_OF_ASC_NODE":34.5569,"ARG_OF_PERICENTER":161.1769,"MEAN_ANOMALY":198.9768,"EPHEMERIS_TYPE":0,"CLASSIFICATION_TYPE":"U","NORAD_CAT_ID":64881,"ELEMENT_SET_NO":999,"REV_AT_EPOCH":6514,"BSTAR":0.00076451,"MEAN_MOTION_DOT":0.00022046,"MEAN_MOTION_DDOT":0},{"OBJECT_NAME":"GEOSCAN 2 (RS92S2)","OBJECT_ID":"2025-155Q","EPOCH":"2026-03-06T19:37:17.138208","MEAN_MOTION":15.28600024,"ECCENTRICITY":0.0008154,"INCLINATION":97.4461,"RA_OF_ASC_NODE":34.3837,"ARG_OF_PERICENTER":150.262,"MEAN_ANOMALY":209.9085,"EPHEMERIS_TYPE":0,"CLASSIFICATION_TYPE":"U","NORAD_CAT_ID":64890,"ELEMENT_SET_NO":999,"REV_AT_EPOCH":6513,"BSTAR":0.00058122,"MEAN_MOTION_DOT":0.00016127,"MEAN_MOTION_DDOT":0},{"OBJECT_NAME":"GEOSCAN 5 (RS92S5)","OBJECT_ID":"2025-155R","EPOCH":"2026-03-06T20:15:18.529344","MEAN_MOTION":15.30127313,"ECCENTRICITY":0.0006612,"INCLINATION":97.446,"RA_OF_ASC_NODE":34.6648,"ARG_OF_PERICENTER":163.7857,"MEAN_ANOMALY":196.3597,"EPHEMERIS_TYPE":0,"CLASSIFICATION_TYPE":"U","NORAD_CAT_ID":64891,"ELEMENT_SET_NO":999,"REV_AT_EPOCH":6515,"BSTAR":0.00074838,"MEAN_MOTION_DOT":0.00021794,"MEAN_MOTION_DDOT":0},{"OBJECT_NAME":"GEOSCAN 4 (RS92S4)","OBJECT_ID":"2025-155S","EPOCH":"2026-03-06T20:04:37.042176","MEAN_MOTION":15.30229593,"ECCENTRICITY":0.0006604,"INCLINATION":97.4464,"RA_OF_ASC_NODE":34.6812,"ARG_OF_PERICENTER":164.1286,"MEAN_ANOMALY":196.0163,"EPHEMERIS_TYPE":0,"CLASSIFICATION_TYPE":"U","NORAD_CAT_ID":64892,"ELEMENT_SET_NO":999,"REV_AT_EPOCH":6515,"BSTAR":0.00073127,"MEAN_MOTION_DOT":0.0002136,"MEAN_MOTION_DDOT":0},{"OBJECT_NAME":"GEOSCAN 3 (RS92S3)","OBJECT_ID":"2025-155T","EPOCH":"2026-03-06T19:36:22.585248","MEAN_MOTION":15.31525202,"ECCENTRICITY":0.0006284,"INCLINATION":97.4455,"RA_OF_ASC_NODE":34.8471,"ARG_OF_PERICENTER":163.6413,"MEAN_ANOMALY":196.5032,"EPHEMERIS_TYPE":0,"CLASSIFICATION_TYPE":"U","NORAD_CAT_ID":64893,"ELEMENT_SET_NO":999,"REV_AT_EPOCH":6516,"BSTAR":0.00088195,"MEAN_MOTION_DOT":0.0002685,"MEAN_MOTION_DDOT":0},{"OBJECT_NAME":"INNOSAT 3 (RS92S0)","OBJECT_ID":"2025-155U","EPOCH":"2026-03-06T20:37:07.072896","MEAN_MOTION":15.36421333,"ECCENTRICITY":0.0005972,"INCLINATION":97.4425,"RA_OF_ASC_NODE":35.5185,"ARG_OF_PERICENTER":154.4469,"MEAN_ANOMALY":205.7071,"EPHEMERIS_TYPE":0,"CLASSIFICATION_TYPE":"U","NORAD_CAT_ID":64894,"ELEMENT_SET_NO":999,"REV_AT_EPOCH":6521,"BSTAR":0.0012915,"MEAN_MOTION_DOT":0.00046047,"MEAN_MOTION_DDOT":0}]
