TEVEL2-1                
1 63217U 25052H   26065.83605256  .00025393  00000+0  86946-3 0  9994
2 63217  97.3997 321.9669 0004664 111.0995 249.0745 15.30198970 54426
TEVEL2-3                
1 63218U 25052J   26065.24516551  .00021441  00000+0  73478-3 0  9995
2 63218  97.4004 321.3898 0004582 112.8346 247.3379 15.30206494 54338
TEVEL2-2                
1 63219U 25052K   26065.44435502  .00022514  00000+0  77190-3 0  9991
2 63219  97.3999 321.5778 0004568 112.1727 247.9999 15.30181583 54368
TEVEL2-9                
1 63237U 25052AD  26065.49459654  .00020752  00000+0  74941-3 0  9993
2 63237  97.4059 321.2033 0007857 133.8146 226.3745 15.28481758 54326
TEVEL2-7                
1 63238U 25052AE  26065.64940470  .00023395  00000+0  84952-3 0  9991
2 63238  97.4057 321.3106 0007820 132.7024 227.4876 15.28275981 54348
TEVEL2-8                
1 63239U 25052AF  26065.65638301  .00023523  00000+0  85477-3 0  9996
2 63239  97.4060 321.2981 0007774 134.0675 226.1206 15.28252757 54347
HADES-ICM               
1 63492U 25052BN  26065.61157319  .00163262  00000+0  23164-2 0  9997
2 63492  97.3950 325.9491 0008793 116.9998 243.2156 15.55831658 54663
INNOSAT 16 (RS92S7)     
1 64878U 25155C   26065.82792592  .00009462  00000+0  39138-3 0  9991
2 64878  97.4465  33.4454 0010631 175.1344 184.9999 15.24125573 65071
GEOSCAN 6 (RS92S6)      
1 64879U 25155D   26065.83353798  .00016290  00000+0  59991-3 0  9990
2 64879  97.4465  34.2182 0008374 163.5367 196.6145 15.27885151 65123
GEOSCAN 1 (RS92S1)      
1 64880U 25155E   26065.80463946  .00016959  00000+0  61663-3 0  9997
2 64880  97.4462  34.2614 0008254 163.6225 196.5282 15.28298893 65126
239ALFEROV (RS61S)      
1 64881U 25155F   26065.83318300  .00022046  00000+0  76451-3 0  9999
2 64881  97.4468  34.5569 0008002 161.1769 198.9768 15.29794948 65142
GEOSCAN 2 (RS92S2)      
1 64890U 25155Q   26065.81755947  .00016127  00000+0  58122-3 0  9997
2 64890  97.4461  34.3837 0008154 150.2620 209.9085 15.28600024 65138
GEOSCAN 5 (RS92S5)      
1 64891U 25155R   26065.84396446  .00021794  00000+0  74838-3 0  9994
2 64891  97.4460  34.6648 0006612 163.7857 196.3597 15.30127313 65156
GEOSCAN 4 (RS92S4)      
1 64892U 25155S   26065.83653984  .00021360  00000+0  73127-3 0  9996
2 64892  97.4464  34.6812 0006604 164.1286 196.0163 15.30229593 65155
GEOSCAN 3 (RS92S3)      
1 64893U 25155T   26065.81692807  .00026850  00000+0  88195-3 0  9992
2 64893  97.4455  34.8471 0006284 163.6413 196.5032 15.31525202 65167
INNOSAT 3 (RS92S0)      
1 64894U 25155U   26065.85910964  .00046047  00000+0  12915-2 0  9990
2 64894  97.4425  35.5185 0005972 154.4469 205.7071 15.36421333 65214
